[{"type":"node","id":290380219,"lat":52.0976555,"lon":4.4261411,"tags":{"backcountry":"yes","camp_site":"basic","fee":"no","maxtents":"3","name":"Paalkampeerterrein Leidschendammerhout","operator":"Staatsbosbeheer","tents":"yes","tourism":"camp_site","website":"https://www.staatsbosbeheer.nl/"}},{"type":"node","id":650833119,"lat":52.2107891,"lon":5.2190325,"tags":{"backcountry":"yes","camp_site":"basic","caravans":"no","designation":"Natuurkampeerterrein Kaapweg ''Vrij kamperen.","fee":"no","maxtents":"3","name":"Paalkampeerterrein Kaapweg","operator":"Staatsbosbeheer","source":"http://www.staatsbosbeheer.nl/overnachten/kampeerterreinen/kaapweg.aspx","tents":"yes","tourism":"camp_site"}},{"type":"node","id":660481477,"lat":52.1065388,"lon":5.3005354,"tags":{"backcountry":"yes","camp_site":"basic","designation":"Vrij kamperen Austerlitz (UT)","fee":"no","name":"Paalkampeerterrein Austerlitz","operator":"Staatsbosbeheer","source":"http://www.staatsbosbeheer.nl/Overnachten/Kampeerterreinen/Austerlitz.aspx","tourism":"camp_site","website":"https://www.logerenbijdeboswachter.nl/vrij-kamperen"}},{"type":"node","id":995655663,"lat":40.6054251,"lon":-111.6983553,"tags":{"access":"yes","backcountry":"yes","camp_site":"basic","fee":"no","tourism":"camp_site"}},{"type":"node","id":995655682,"lat":40.60467,"lon":-111.6974412,"tags":{"access":"yes","backcountry":"yes","camp_site":"basic","fee":"no","tourism":"camp_site"}},{"type":"node","id":995655698,"lat":40.6022265,"lon":-111.6972361,"tags":{"access":"yes","backcountry":"yes","camp_site":"basic","fee":"no","tourism":"camp_site"}},{"type":"node","id":1125438904,"lat":62.2085551,"lon":28.9202545,"tags":{"access":"yes","backcountry":"yes","camp_site":"basic","drinking_water":"no","fee":"no","name":"Lohilahti itä telttailualue","openfire":"yes","operator":"Metsähallitus","tents":"yes","toilets":"yes","tourism":"camp_site"}},{"type":"node","id":1125438916,"lat":62.2085673,"lon":28.904536,"tags":{"access":"yes","backcountry":"yes","camp_site":"basic","drinking_water":"no","fee":"no","name":"Vaajasalo","openfire":"yes","operator":"Metsähallitus","tents":"yes","toilets":"yes","tourism":"camp_site"}},{"type":"node","id":1125438928,"lat":62.2609712,"lon":28.8580775,"tags":{"access":"yes","backcountry":"yes","camp_site":"basic","capacity":"5","drinking_water":"no","name":"Laajakaarre telttailualue","openfire":"yes","operator":"Metsähallitus","tents":"yes","toilets":"yes","tourism":"camp_site"}},{"type":"node","id":1125443162,"lat":62.2220846,"lon":28.9037721,"tags":{"access":"yes","backcountry":"yes","camp_site":"basic","capacity":"3","drinking_water":"no","fee":"no","mapillary":"USEF9naiWCPWcQZATRvr3Q","name":"Hirviniemi","openfire":"yes","operator":"Metsähallitus","toilets":"yes","tourism":"camp_site"}},{"type":"node","id":1390806829,"lat":51.247398,"lon":3.9378594,"tags":{"access":"yes","backcountry":"yes","bicycle":"yes","camp_site":"basic","description":"Natuurkampeerterrein Fort Sint Livinus ''Vrij kamperen.","dog":"yes","drinking_water":"yes","fee":"no","image":"http://www.bivakzone.be/images/fortlivinus/infobord.jpg","image1":"http://www.bivakzone.be/images/fortlivinus/fortlivinus3.jpg","image2":"http://www.bivakzone.be/images/fortlivinus/fortlivinus2.jpg","image3":"http://www.bivakzone.be/images/fortlivinus/wandelenfietsborden.jpg","maxstay":"72hrs","maxtents":"3","motor_vehicle":"no","name":"Paalkampeerterrein Fort Sint Livinus","openfire":"no","opening_hours":"accessible all year round","operator":"Dutch State Forest Management","reservation":"no","source":"http://www.staatsbosbeheer.nl/overnachten/kampeerterreinen/fort%20sint%20livinus.aspx","toilets":"no","tourism":"camp_site"}},{"type":"node","id":1390812291,"lat":51.4574828,"lon":4.6889206,"tags":{"backcountry":"yes","camp_site":"basic","capacity":"10","designation":"Natuurkampeerterrein Gooren en Krochten ''Vrij kamperen.","dog":"yes","drinking_water":"no","fee":"no","maxstay":"72 hr","maxtents":"3","motor_vehicle":"no","name":"Paalkampeerterrein Gooren en Krochten","openfire":"yes","opening_hours":"17:00-09:00","operator":"bivakzone","reservation":"no","source":"http://www.staatsbosbeheer.nl/overnachten/kampeerterreinen/gooren%20en%20krochten.aspx","toilets":"no","tourism":"camp_site"}},{"type":"node","id":1392051995,"lat":52.6615509,"lon":6.2638016,"tags":{"backcountry":"yes","camp_site":"basic","designation":"Natuurkampeerterrein Het Schot ''Vrij kamperen.","fee":"no","name":"Paalkampeerterrein Het Schot","operator":"Staatsbosbeheer","source":"http://www.staatsbosbeheer.nl/overnachten/kampeerterreinen/het%20schot.aspx","tourism":"camp_site"}},{"type":"node","id":1392117337,"lat":52.3724479,"lon":6.4284192,"tags":{"backcountry":"yes","camp_site":"basic","designation":"Natuurkampeerterrein Klinkenbelt ''Vrij kamperen.","fee":"no","name":"Paalkampeerterrein Klinkenbelt","operator":"Staatsbosbeheer","source":"http://www.staatsbosbeheer.nl/Overnachten/Kampeerterreinen/Klinkenbelt.aspx","tourism":"camp_site"}},{"type":"node","id":1503591724,"lat":37.4154501,"lon":-113.1546779,"tags":{"backcountry":"yes","camp_site":"basic","name":"Campsite 7","tourism":"camp_site"}},{"type":"node","id":1503591736,"lat":37.4062489,"lon":-113.196384,"tags":{"backcountry":"yes","camp_site":"basic","name":"Campsite 3","tourism":"camp_site"}},{"type":"node","id":1503591774,"lat":37.4154664,"lon":-113.1521434,"tags":{"backcountry":"yes","camp_site":"basic","name":"Campsite 8","tourism":"camp_site"}},{"type":"node","id":1503591787,"lat":37.4076295,"lon":-113.1759348,"tags":{"backcountry":"yes","camp_site":"basic","name":"Campsite 4","tourism":"camp_site"}},{"type":"node","id":1503591840,"lat":37.4106591,"lon":-113.1700994,"tags":{"backcountry":"yes","camp_site":"basic","name":"Campsite 5","tourism":"camp_site"}},{"type":"node","id":1503591841,"lat":37.420071,"lon":-113.1956329,"tags":{"backcountry":"yes","camp_site":"basic","name":"Campsite 1","tourism":"camp_site"}},{"type":"node","id":1503591858,"lat":37.4143788,"lon":-113.192822,"tags":{"backcountry":"yes","camp_site":"basic","name":"Campsite 2","tourism":"camp_site"}},{"type":"node","id":1788395381,"lat":62.2363529,"lon":28.8935676,"tags":{"access":"yes","backcountry":"yes","camp_site":"basic","capacity":"6","drinking_water":"no","fee":"no","internet_access":"no","name":"Kirkkoranta","openfire":"yes","operator":"Metsähallitus","tents":"yes","toilets":"yes","tourism":"camp_site","wheelchair":"no"}},{"type":"node","id":1801074833,"lat":52.1299382,"lon":4.5302911,"tags":{"backcountry":"yes","camp_site":"basic","designation":"Vrij kamperen","fee":"no","internet_access":"no","name":"Paalkampeerterrein Weipoortse Vliet","operator":"Staatsbosbeheer","source":"http://www.staatsbosbeheer.nl/Overnachten/Kampeerterreinen/Weipoortse%20Vliet.aspx","tourism":"camp_site","website":"http://www.staatsbosbeheer.nl/Overnachten/Kampeerterreinen/Weipoortse%20Vliet.aspx"}},{"type":"node","id":1865217252,"lat":49.9415479,"lon":87.5170531,"tags":{"backcountry":"yes","camp_site":"basic","tourism":"camp_site"}},{"type":"node","id":1985858969,"lat":50.8922404,"lon":3.6756643,"tags":{"alt_name":"Paalkampeerplaats Spettekraai","backcountry":"yes","camp_site":"basic","capacity":"2","caravans":"no","description":"site voor paalkamperen","drinking_water":"no","fee":"no","internet_access":"no","name":"Bivakzone: Oude Schelde Spettekraai - Zingem","openfire":"yes","operator":"Agentschap Natuur & Bos","smoking":"yes","tents":"yes","tourism":"camp_site","website":"http://www.bivakzone.be/oudescheldespettekraai.html","wheelchair":"no"}},{"type":"node","id":2082330043,"lat":49.254413,"lon":7.9500938,"tags":{"access":"customers","backcountry":"yes","camp_site":"basic","capacity":"6","caravans":"no","drinking_water":"no","fee":"yes","maxtents":"6","name":"Trekking Pfalz: Eußerthal","openfire":"yes","opening_hours":"Apr 1-Oct 31: \"needs reservation by phone or web\"","ref":"5","reservation":"required","shower":"no","tents":"yes","toilets":"yes","tourism":"camp_site","website":"http://www.trekking-pfalz.de/de/trekking-plaetze/uebersicht-der-plaetze/platz-5/"}},{"type":"node","id":2273605600,"lat":49.3145732,"lon":8.0821352,"tags":{"access":"customers","backcountry":"yes","camp_site":"basic","capacity":"6","caravans":"no","drinking_water":"no","fee":"yes","maxtents":"6","name":"Trekking Pfalz: Kalmit","openfire":"yes","opening_hours":"Apr 1-Oct 31: \"needs reservation by phone or web\"","ref":"7","reservation":"required","shower":"no","source":"https://www.trekking-pfalz.de/de/trekking-plaetze/","tents":"yes","toilets":"yes","tourism":"camp_site","website":"http://www.trekking-pfalz.de/de/trekking-plaetze/uebersicht-der-plaetze/platz-7/"}},{"type":"node","id":2358384720,"lat":55.2098286,"lon":14.9413423,"tags":{"backcountry":"yes","camp_site":"basic","capacity:tents":"3","description":"Lille lejrplads, hvor der er adgang fra vand, bålplads, og heste er tilladt.","fee":"no","horse":"yes","internet_access":"no","leisure":"firepit","motor_vehicle":"no","name":"Salene primitive teltplads","operator":"Hammerodde Kajakklub","source":"survey;website","tents":"yes","tourism":"camp_site","website":"http://udinaturen.dk/facilitet/Salene-primitive-teltplads/8474"}},{"type":"node","id":2430034175,"lat":62.3073505,"lon":28.7474625,"tags":{"access":"yes","backcountry":"yes","camp_site":"basic","capacity":"3","drinking_water":"no","fee":"no","name":"Pitkäsaari etelä telttailualue","openfire":"yes","operator":"Metsähallitus","tents":"yes","toilets":"no","tourism":"camp_site"}},{"type":"node","id":2603003846,"lat":55.1664156,"lon":9.3690428,"tags":{"access":"yes","backcountry":"yes","camp_site":"basic","description":"primitiv overnatning","drinking_water":"no","fee":"no","motor_vehicle":"no","name":"Stengelmose/Skovby - Primitive Teltplads","openfire":"yes","operator":"Haderslev Kommune","phone":"+45 74 34 23 12","toilets":"no","tourism":"camp_site","website":"http://udinaturen.dk/facilitet/teltplads-stengelmose-skovby/5311"}},{"type":"node","id":3207073044,"lat":41.6611062,"lon":-111.6649432,"tags":{"backcountry":"yes","camp_site":"basic","caravans":"no","shower":"no","tents":"yes","toilets":"no","tourism":"camp_site"}},{"type":"node","id":3207073076,"lat":41.6620117,"lon":-111.6539888,"tags":{"backcountry":"yes","camp_site":"basic","caravans":"no","shower":"no","tents":"yes","toilets":"no","tourism":"camp_site"}},{"type":"node","id":3348489722,"lat":55.1213519,"lon":12.1256281,"tags":{"backcountry":"yes","camp_site":"basic","caravans":"no","motor_vehicle":"no","name":"Roneklint Primitiv Overnatning","tourism":"camp_site"}},{"type":"node","id":3544038313,"lat":51.46677,"lon":5.067727,"tags":{"backcountry":"yes","bicycle":"yes","camp_site":"basic","capacity":"10","caravans":"no","description":"minimalistic bivouac site","description:nl":"site voor paalkamperen","drinking_water":"no","fee":"no","image":"http://www.bivakzone.be/images/molenheide/bivakzone_molenheide2.png","image:1":"http://www.bivakzone.be/images/molenheide/bivakzone_molenheide.jpg","maxstay":"2 night","maxtents":"3","motor_vehicle":"no","name":"Molenheide Poppel","opening_hours":"24/7","operator":"Flemish Agency for Nature and Forests (ANB)","reservation":"no","source:nl":"http://www.bivakzone.be/molenheide.html","tents":"yes","tourism":"camp_site","url":"http://bivakzone.be/arcadia-muizen.html","website":"http://www.bivakzone.be/molenheide.html"}},{"type":"node","id":3640442041,"lat":36.2831808,"lon":30.45266,"tags":{"backcountry":"yes","camp_site":"basic","capacity:tents":"4","description":"Удобные места под палатки (терассы)","impromptu":"yes","tourism":"camp_site"}},{"type":"node","id":3824691120,"lat":49.0832763,"lon":7.919124,"tags":{"FIXME":"Toilettenhäuschen, Feuerstelle etc. erfassen","access":"customers","backcountry":"yes","camp_site":"basic","capacity":"6","caravans":"no","drinking_water":"no","fee":"yes","maxtents":"6","name":"Trekking Pfalz: Ruine Guttenberg","openfire":"yes","opening_hours":"Apr 1-Oct 31: \"needs reservation by phone or web\"","ref":"1","reservation":"required","shower":"no","tents":"yes","toilets":"yes","tourism":"camp_site","website":"http://www.trekking-pfalz.de/de/trekking-plaetze/uebersicht-der-plaetze/platz-1/"}},{"type":"node","id":3999393657,"lat":49.8463175,"lon":7.3900336,"tags":{"access":"customers","backcountry":"yes","camp_site":"basic","caravans":"no","fee":"yes","internet_access":"no","name":"Trekkingcamp Schmidtburg","openfire":"yes","operator":"Naturpark Soonwald-Nahe 2019","shower":"no","tents":"yes","toilets":"yes","tourism":"camp_site","website":"https://www.soonwaldsteig.de/trekkingcamps/die-camps/trekkingcamp-schmidtburg","wheelchair":"no"}},{"type":"node","id":4205769490,"lat":51.0627669,"lon":4.9300095,"tags":{"alt_name":"Paalkampeerplaats Merode","backcountry":"yes","camp_site":"basic","caravans":"no","description":"site voor paalkamperen","impromptu":"yes","maxstay":"1 day","motor_vehicle":"no","name":"Bivakzone Hertberg-Oost","tents":"yes","tourism":"camp_site","website":"https://www.natuurenbos.be/bivakzone-hertberg-oost"}},{"type":"node","id":4241370912,"lat":45.3496291,"lon":-121.8371143,"tags":{"backcountry":"yes","camp_site":"basic","openfire":"yes","tourism":"camp_site"}},{"type":"node","id":4241370955,"lat":45.3499237,"lon":-121.8380855,"tags":{"backcountry":"yes","camp_site":"basic","openfire":"yes","tourism":"camp_site"}},{"type":"node","id":4241370957,"lat":45.3499277,"lon":-121.8331838,"tags":{"backcountry":"yes","camp_site":"basic","openfire":"yes","tourism":"camp_site"}},{"type":"node","id":4241370983,"lat":45.3500593,"lon":-121.8347028,"tags":{"backcountry":"yes","camp_site":"basic","openfire":"yes","tourism":"camp_site"}},{"type":"node","id":4241371022,"lat":45.3504001,"lon":-121.8374576,"tags":{"backcountry":"yes","camp_site":"basic","openfire":"yes","tourism":"camp_site"}},{"type":"node","id":4241371071,"lat":45.3511399,"lon":-121.8375505,"tags":{"backcountry":"yes","camp_site":"basic","openfire":"yes","tourism":"camp_site"}},{"type":"node","id":4346872496,"lat":51.4976985,"lon":4.8192462,"tags":{"backcountry":"yes","camp_site":"basic","capacity":"10","description":"It's located in a little forest near Strijbeek in the Netherlands","drinking_water":"no","fee":"no","image":"http://www.bivakzone.be/images/strijbeekseheide/omgevingstrijbeekseheide.jpg","maxstay":"72 hr","motor_vehicle":"no","name":"Paalkampeerterrein Strijbeekse Heide","operator":"Dutch State Forest Management","reservation":"no","tourism":"camp_site","website":"https://www.logerenbijdeboswachter.nl/vrij-kamperen"}},{"type":"node","id":4366549150,"lat":50.8192516,"lon":3.6751901,"tags":{"backcountry":"yes","camp_site":"basic","capacity":"10","caravans":"no","description":"minimalistic bivouac site","description:nl":"site voor paalkamperen","drinking_water":"no","fee":"no","image":"http://www.bivakzone.be/images/wereldboom/wereldboom2.jpg","image:1":"http://www.bivakzone.be/images/wereldboom/landschap.jpg","image:2":"http://www.bivakzone.be/images/stropersbos/konikpaarden.jpg","maxstay":"2 night","maxtents":"3","motor_vehicle":"no","name":"werelddboom","openfire":"no","opening_hours":"24/7","operator":"Raoul D'Hoossche","reservation":"no","source:nl":"http://www.bivakzone.be/wereldboom-horebeke.html","tents":"yes","toilets":"no","tourism":"camp_site","url":"http://www.bivakzone.be/wereldboom-horebeke.html","website":"http://www.bivakzone.be/wereldboom-horebeke.html"}},{"type":"node","id":4394926500,"lat":68.3271136,"lon":18.7542302,"tags":{"backcountry":"yes","camp_site":"basic","description":"One of the 3 places (Abisko Turiststation, Abiskojaurestugorna) in Abisko Nationalpark where you are allowed to pitch a tent","name":"Nissonjokk tältplats","tourism":"camp_site"}},{"type":"node","id":4473716866,"lat":28.1067563,"lon":-80.9273658,"tags":{"backcountry":"yes","camp_site":"basic","name":"Jane Green","tourism":"camp_site"}},{"type":"node","id":4473716867,"lat":28.0060662,"lon":-80.9485187,"tags":{"backcountry":"yes","camp_site":"basic","name":"Little Scrub","tourism":"camp_site"}},{"type":"node","id":4707697279,"lat":53.5107991,"lon":-118.512863,"tags":{"backcountry":"yes","camp_site":"basic","tourism":"camp_site"}},{"type":"node","id":4707697395,"lat":53.5106775,"lon":-118.5281628,"tags":{"backcountry":"yes","camp_site":"basic","tourism":"camp_site"}},{"type":"node","id":4751481331,"lat":49.9223008,"lon":9.444535,"tags":{"addr:city":"Rohrbrunner Forst","backcountry":"yes","camp_site":"basic","capacity":"15","caravans":"no","drinking_water":"no","fee":"yes","group_only":"no","impromptu":"no","internet_access":"no","maxtents":"5","name":"Trekking-Zeltplatz Rothenbuch II","openfire":"yes","opening_hours":"Apr-Oct","operator":"Bayerische Staatsforsten AöR","reservation":"required","sanitary_dump_station":"no","scout":"no","tents":"yes","tourism":"camp_site","website":"https://www.trekking-bayern.de/region/spessart/zeltplaetze.html"}},{"type":"node","id":4751481332,"lat":49.9567789,"lon":9.4251895,"tags":{"addr:city":"Rothenbucher Forst","backcountry":"yes","camp_site":"basic","capacity":"15","caravans":"no","drinking_water":"no","fee":"yes","group_only":"no","impromptu":"no","internet_access":"no","maxtents":"5","name":"Trekking-Zeltplatz Rothenbuch I","openfire":"yes","opening_hours":"Apr-Oct","operator":"Bayerische Staatsforsten AöR","reservation":"required","sanitary_dump_station":"no","scout":"no","tents":"yes","tourism":"camp_site","website":"https://www.trekking-bayern.de/region/spessart/zeltplaetze.html"}},{"type":"node","id":4858295722,"lat":37.4148646,"lon":-113.151709,"tags":{"backcountry":"yes","camp_site":"basic","name":"Campsite 9","tourism":"camp_site"}},{"type":"node","id":4858295724,"lat":37.4201743,"lon":-113.1399169,"tags":{"backcountry":"yes","camp_site":"basic","name":"Campsite 12","tourism":"camp_site"}},{"type":"node","id":4858295725,"lat":37.4172176,"lon":-113.1431914,"tags":{"backcountry":"yes","camp_site":"basic","name":"Campsite 11","name:en":"Campsite 11","tourism":"camp_site"}},{"type":"node","id":4858402321,"lat":37.4162491,"lon":-113.1495309,"tags":{"backcountry":"yes","camp_site":"basic","name":"Campsite 10","tourism":"camp_site"}},{"type":"node","id":4911410195,"lat":53.5057144,"lon":-118.5292266,"tags":{"backcountry":"yes","camp_site":"basic","tourism":"camp_site"}},{"type":"node","id":4964628528,"lat":52.0809439,"lon":-116.6281799,"tags":{"backcountry":"yes","camp_site":"basic","fee":"no","tourism":"camp_site"}},{"type":"node","id":4964628537,"lat":52.0883097,"lon":-116.5540356,"tags":{"backcountry":"yes","camp_site":"basic","fee":"no","tourism":"camp_site"}},{"type":"node","id":4964628541,"lat":52.0887052,"lon":-116.5561331,"tags":{"backcountry":"yes","camp_site":"basic","fee":"no","tourism":"camp_site"}},{"type":"node","id":4964628574,"lat":52.106873,"lon":-116.5669505,"tags":{"backcountry":"yes","camp_site":"basic","fee":"no","tourism":"camp_site"}},{"type":"node","id":4964628582,"lat":52.1083095,"lon":-116.5790687,"tags":{"backcountry":"yes","camp_site":"basic","fee":"no","tourism":"camp_site"}},{"type":"node","id":4964628587,"lat":52.1097822,"lon":-116.5782989,"tags":{"backcountry":"yes","camp_site":"basic","fee":"no","tourism":"camp_site"}},{"type":"node","id":4964628619,"lat":52.1209144,"lon":-116.579414,"tags":{"backcountry":"yes","camp_site":"basic","fee":"no","tourism":"camp_site"}},{"type":"node","id":4964628622,"lat":52.1280678,"lon":-116.5759486,"tags":{"backcountry":"yes","camp_site":"basic","fee":"no","tourism":"camp_site"}},{"type":"node","id":4964628628,"lat":52.1346908,"lon":-116.5743004,"tags":{"backcountry":"yes","camp_site":"basic","fee":"no","tourism":"camp_site"}},{"type":"node","id":4964628633,"lat":52.1432436,"lon":-116.57608,"tags":{"backcountry":"yes","camp_site":"basic","fee":"no","tourism":"camp_site"}},{"type":"node","id":4964628650,"lat":52.1514254,"lon":-116.5583292,"tags":{"backcountry":"yes","camp_site":"basic","fee":"no","tourism":"camp_site"}},{"type":"node","id":4964628653,"lat":52.1519948,"lon":-116.5564114,"tags":{"backcountry":"yes","camp_site":"basic","fee":"no","tourism":"camp_site"}},{"type":"node","id":4964628654,"lat":52.1526062,"lon":-116.5265759,"tags":{"backcountry":"yes","camp_site":"basic","fee":"no","tourism":"camp_site"}},{"type":"node","id":4964628658,"lat":52.1536717,"lon":-116.527178,"tags":{"backcountry":"yes","camp_site":"basic","fee":"no","tourism":"camp_site"}},{"type":"node","id":4996334079,"lat":48.5249275,"lon":11.5269009,"tags":{"access":"permissive","backcountry":"yes","camp_site":"basic","name":"Zeltplatz","operator":"ecoQuartier","toilets:wheelchair":"no","tourism":"camp_site","wheelchair":"no"}},{"type":"node","id":5043081751,"lat":56.1299826,"lon":14.4999817,"tags":{"backcountry":"yes","camp_site":"basic","caravans":"no","contact:website":"http://wetlandi.se","description":"Accessible only by canoe, no reservation possible","drinking_water":"no","fee":"no","internet_access":"no","name":"Slättön","note":"position estimated","openfire":"yes","opening_hours":"24/7","operator":"Wetlandi canoehire","power_supply":"no","reservation":"no","shower":"no","smoking":"outside","tents":"only","toilets":"no","tourism":"camp_site"}},{"type":"node","id":5043778981,"lat":56.1109293,"lon":14.4532067,"tags":{"backcountry":"yes","camp_site":"basic","caravans":"no","contact:website":"http://wetlandi.se","description":"Accessible only by canoe, no reservation possible","drinking_water":"no","fee":"no","internet_access":"no","name":"Söndre Udde","openfire":"yes","opening_hours":"24/7","operator":"Wetlandi","power_supply":"no","reservation":"no","shower":"no","smoking":"outside","tents":"only","toilets":"no","tourism":"camp_site","wheelchair":"no"}},{"type":"node","id":5079792246,"lat":46.1960929,"lon":-121.7407235,"tags":{"backcountry":"yes","camp_site":"basic","name":"Island Shelter","tourism":"camp_site"}},{"type":"node","id":5089244236,"lat":49.9343102,"lon":87.8423944,"tags":{"backcountry":"yes","camp_site":"basic","tourism":"camp_site"}},{"type":"node","id":5092619026,"lat":37.4495562,"lon":-112.2383423,"tags":{"backcountry":"yes","camp_site":"basic","fee":"yes","name":"Riggs Spring Group Campsite","tourism":"camp_site","website":"https://www.nps.gov/brca/planyourvisit/riggsspringgs.htm"}},{"type":"node","id":5114358801,"lat":54.046688,"lon":35.8525079,"tags":{"backcountry":"yes","camp_site":"basic","caravans":"no","drinking_water":"yes","fee":"yes","impromptu":"no","name":"Железинка","note":"100 руб с человека","openfire":"yes","operator":"Национальный парк Угра","stars":"1","tents":"yes","tourism":"camp_site"}},{"type":"node","id":5136931667,"lat":46.3164963,"lon":-122.1215947,"tags":{"backcountry":"yes","camp_site":"basic","name":"Bear Camp","tourism":"camp_site"}},{"type":"node","id":5136931688,"lat":46.3324834,"lon":-122.1127366,"tags":{"backcountry":"yes","camp_site":"basic","name":"Obscurity Camp","tourism":"camp_site"}},{"type":"node","id":5136931689,"lat":46.3322939,"lon":-122.1202767,"tags":{"backcountry":"yes","camp_site":"basic","name":"Panhandle Camp","tourism":"camp_site"}},{"type":"node","id":5143295653,"lat":42.863843,"lon":0.8087772,"tags":{"backcountry":"yes","camp_site":"basic","capacity":"6","name":"Camp de l'Ours","tents":"yes","tourism":"camp_site"}},{"type":"node","id":5143975693,"lat":46.3134148,"lon":-122.1478754,"tags":{"backcountry":"yes","camp_site":"basic","name":"Margaret Camp","tourism":"camp_site"}},{"type":"node","id":5143975699,"lat":46.3327684,"lon":-122.1346258,"tags":{"backcountry":"yes","camp_site":"basic","name":"Shovel Camp","tourism":"camp_site"}},{"type":"node","id":5143975700,"lat":46.3325468,"lon":-122.1519091,"tags":{"backcountry":"yes","camp_site":"basic","name":"Snow Camp","tourism":"camp_site"}},{"type":"node","id":5143975702,"lat":46.3073676,"lon":-122.2072873,"tags":{"backcountry":"yes","camp_site":"basic","name":"Ridge Camp","tourism":"camp_site"}},{"type":"node","id":5143975704,"lat":46.3124051,"lon":-122.1532891,"tags":{"backcountry":"yes","camp_site":"basic","name":"Dome Camp","tourism":"camp_site"}},{"type":"node","id":5153630821,"lat":35.4209805,"lon":-83.9496935,"tags":{"amenity":"table","backcountry":"yes","camp_site":"basic","description":"Nice dispersed campsite place","fee":"no","fireplace":"yes","tents":"yes","tourism":"camp_site"}},{"type":"node","id":5155198421,"lat":35.3705286,"lon":-82.9392415,"tags":{"backcountry":"yes","camp_site":"basic","description":"Dispersed campsite area #1","fee":"no","tents":"yes","tourism":"camp_site"}},{"type":"node","id":5155198422,"lat":35.3080446,"lon":-82.9088194,"tags":{"backcountry":"yes","camp_site":"basic","description":"Dispersed campsite area #2","fee":"no","tents":"yes","tourism":"camp_site"}},{"type":"node","id":5155545523,"lat":35.6955826,"lon":-82.1971442,"tags":{"backcountry":"yes","camp_site":"basic","description":"Dispersed free camping area","fee":"no","tourism":"camp_site"}},{"type":"node","id":5155545524,"lat":35.7209581,"lon":-82.1829092,"tags":{"backcountry":"yes","camp_site":"basic","description":"Dispersed free campsite area","fee":"no","tourism":"camp_site"}},{"type":"node","id":5164192524,"lat":38.5960638,"lon":-78.3696389,"tags":{"backcountry":"yes","camp_site":"basic","description":"Since it's located in Shenandoah NP, it's required to get a permit from rangers (for free)","fee":"no","tourism":"camp_site"}},{"type":"node","id":5345847724,"lat":53.5156158,"lon":-118.3696478,"tags":{"backcountry":"yes","camp_site":"basic","note":"Location approximate","tourism":"camp_site"}},{"type":"node","id":5345848102,"lat":53.5307705,"lon":-118.4475044,"tags":{"backcountry":"yes","camp_site":"basic","note":"Location approximate","tourism":"camp_site"}},{"type":"node","id":5346037954,"lat":53.562155,"lon":-118.6355029,"tags":{"backcountry":"yes","camp_site":"basic","name":"Hay Summit","tourism":"camp_site"}},{"type":"node","id":5346038932,"lat":53.4916239,"lon":-118.5405661,"tags":{"backcountry":"yes","camp_site":"basic","tourism":"camp_site"}},{"type":"node","id":5346039106,"lat":53.5105039,"lon":-118.5193767,"tags":{"backcountry":"yes","camp_site":"basic","tourism":"camp_site"}},{"type":"node","id":5346039533,"lat":53.5228111,"lon":-118.4977259,"tags":{"backcountry":"yes","camp_site":"basic","tourism":"camp_site"}},{"type":"node","id":5347732244,"lat":53.5020605,"lon":-118.7404913,"tags":{"backcountry":"yes","camp_site":"basic","tourism":"camp_site"}},{"type":"node","id":5347732251,"lat":53.5095967,"lon":-118.7408923,"tags":{"backcountry":"yes","camp_site":"basic","tourism":"camp_site"}},{"type":"node","id":5378404736,"lat":53.7747388,"lon":-119.359319,"tags":{"backcountry":"yes","camp_site":"basic","name":"Muddy Water","tourism":"camp_site"}},{"type":"node","id":5378404803,"lat":53.7799209,"lon":-119.453879,"tags":{"backcountry":"yes","camp_site":"basic","tourism":"camp_site"}},{"type":"node","id":5394085208,"lat":53.5049206,"lon":-118.5230602,"tags":{"backcountry":"yes","camp_site":"basic","tourism":"camp_site"}},{"type":"node","id":5394086267,"lat":53.5097156,"lon":-118.5180176,"tags":{"backcountry":"yes","camp_site":"basic","tourism":"camp_site"}},{"type":"node","id":5396178405,"lat":53.5068505,"lon":-118.5272254,"tags":{"backcountry":"yes","camp_site":"basic","tourism":"camp_site"}},{"type":"node","id":5455599127,"lat":36.3710987,"lon":-112.468997,"tags":{"access":"yes","backcountry":"yes","camp_site":"basic","fee":"yes","internet_access":"no","name":"Lower Tapeats Campsite","operator":"National Park Service","reservation":"required","tourism":"camp_site"}},{"type":"node","id":5455599128,"lat":36.3904223,"lon":-112.4527596,"tags":{"access":"yes","backcountry":"yes","camp_site":"basic","fee":"yes","internet_access":"no","name":"Upper Tapeats Campsite","operator":"National Park Service","reservation":"required","tourism":"camp_site"}},{"type":"node","id":5487895426,"lat":54.133201,"lon":9.2918046,"tags":{"addr:city":"Albersdorf","addr:postcode":"25767","addr:street":"Horstmoorweg","backcountry":"yes","camp_site":"basic","capacity":"2","caravans":"no","fee":"no","maxstay":"1 day","motor_vehicle":"no","name":"Übernachtungsplatz im Gieselautal/Albersdorf","openfire":"no","operator":"Gemeinde Albersdorf","reservation":"no","shower":"no","tents":"yes","toilets":"no","tourism":"camp_site","website":"https://www.wildes-sh.de/index.php?id=13&tx_ekoneventmap_detail[event]=694"}},{"type":"node","id":5501881154,"lat":53.2400315,"lon":6.0968381,"tags":{"backcountry":"yes","camp_site":"basic","fee":"no","name":"Paalkampeerterrein Frytsjam","tourism":"camp_site","website":"http://www.frytsjam.nl/fruitkwekerij/paalkamperen/"}},{"type":"node","id":5504875431,"lat":50.022595,"lon":4.2155904,"tags":{"backcountry":"yes","camp_site":"basic","fee":"no","internet_access":"no","name":"Bivouac du Sentier des Pins","openfire":"yes","sanitary_dump_station":"no","tents":"yes","tourism":"camp_site"}},{"type":"node","id":5554063599,"lat":49.2940542,"lon":8.0207652,"tags":{"access":"customers","backcountry":"yes","camp_site":"basic","caravans":"no","drinking_water":"no","fee":"yes","name":"Trekking Pfalz: Heldenstein","note":"kein Name vor Ort ausgeschildert","openfire":"yes","opening_hours":"Apr 1-Oct 31: \"needs reservation by phone or web\"","ref":"6","reservation":"required","shower":"no","source":"https://www.trekking-pfalz.de/de/trekking-plaetze/","tents":"yes","toilets":"yes","tourism":"camp_site","website":"http://www.trekking-pfalz.de/de/trekking-plaetze/uebersicht-der-plaetze/platz-6/"}},{"type":"node","id":5568928692,"lat":49.5362315,"lon":7.9912813,"tags":{"TODO":"Toilette, Feuerstelle, etc. erfassen","access":"customers","backcountry":"yes","camp_site":"basic","capacity":"6","caravans":"no","drinking_water":"no","fee":"yes","maxtents":"6","name":"Trekking Pfalz: Ramsen","openfire":"yes","opening_hours":"Apr 1-Oct 31: \"needs reservation by phone or web\"","ref":"9","reservation":"required","shower":"no","tents":"yes","toilets":"yes","tourism":"camp_site","website":"https://www.trekking-pfalz.de/de/trekking-plaetze/uebersicht-der-plaetze/platz-9/"}},{"type":"node","id":5584675041,"lat":37.4107741,"lon":-113.167524,"tags":{"backcountry":"yes","camp_site":"basic","name":"Campsite 6","tourism":"camp_site"}},{"type":"node","id":5633545233,"lat":51.1898564,"lon":3.545672,"tags":{"backcountry":"yes","camp_site":"basic","capacity":"10","drinking_water":"no","fee":"no","maxtents":"3","motor_vehicle":"no","name":"Paalkampeerplaats Galgenhof","openfire":"no","tourism":"camp_site","website":"http://www.meetjesman.be/pagina/paalkamperen"}},{"type":"node","id":5688792744,"lat":-23.6802675,"lon":133.7172081,"tags":{"backcountry":"yes","camp_site":"basic","caravans":"no","name":"Larapinta Walkers Campsite","tents":"yes","tourism":"camp_site"}},{"type":"node","id":5696744891,"lat":51.1395892,"lon":3.4735765,"tags":{"backcountry":"yes","camp_site":"basic","caravans":"no","drinking_water":"no","fee":"no","internet_access":"no","maxtents":"3","name":"Bivakzone Onderdale","openfire":"no","sanitary_dump_station":"no","tents":"yes","tourism":"camp_site","website":"http://www.bivakzone.be/meetjesland.html","wheelchair":"no"}},{"type":"node","id":5760565393,"lat":39.6284656,"lon":70.597195,"tags":{"backcountry":"yes","camp_site":"basic","tourism":"camp_site"}},{"type":"node","id":5982061166,"lat":49.4516299,"lon":7.9690763,"tags":{"access":"customers","backcountry":"yes","camp_site":"basic","caravans":"no","drinking_water":"no","fee":"yes","name":"Trekking Pfalz: Frankenstein","openfire":"yes","opening_hours":"Apr 1-Oct 31: \"needs reservation by phone or web\"","ref":"13","reservation":"required","shower":"no","source":"https://www.trekking-pfalz.de/de/trekking-plaetze/","tents":"yes","toilets":"yes","tourism":"camp_site","website":"https://www.trekking-pfalz.de/de/trekking-plaetze/uebersicht-der-plaetze/platz-13/"}},{"type":"node","id":5998872658,"lat":45.3881131,"lon":-121.8330601,"tags":{"backcountry":"yes","camp_site":"basic","tourism":"camp_site"}},{"type":"node","id":5998872659,"lat":45.3878079,"lon":-121.8326631,"tags":{"backcountry":"yes","camp_site":"basic","tourism":"camp_site"}},{"type":"node","id":5998872660,"lat":45.3784949,"lon":-121.7833306,"tags":{"backcountry":"yes","camp_site":"basic","tourism":"camp_site"}},{"type":"node","id":5998872667,"lat":45.3726984,"lon":-121.7778415,"tags":{"backcountry":"yes","camp_site":"basic","tourism":"camp_site"}},{"type":"node","id":5998872668,"lat":45.3744356,"lon":-121.7790927,"tags":{"backcountry":"yes","camp_site":"basic","tourism":"camp_site"}},{"type":"node","id":6121786088,"lat":41.7506694,"lon":-111.725817,"tags":{"backcountry":"yes","camp_site":"basic","caravans":"no","name":"Logan, free camping","shower":"no","tents":"yes","tourism":"camp_site"}},{"type":"node","id":6355584749,"lat":35.0486157,"lon":-82.9523279,"tags":{"backcountry":"yes","camp_site":"basic","drinking_water":"untreated","fee":"no","name":"Bearcamp Creek Campsite","openfire":"yes","tents":"yes","tourism":"camp_site"}},{"type":"node","id":6497031294,"lat":53.9716627,"lon":9.1367856,"tags":{"access":"yes","backcountry":"yes","camp_site":"basic","capacity":"2","caravans":"no","contact:email":"info@sn-sh.de","contact:phone":"+49 431 21090101","fee":"no","maxstay":"1 day","motor_vehicle":"no","name":"Übernachtungsplatz Sankt Michaelisdonn","openfire":"no","operator":"Stiftung Naturschutz Schleswig-Holstein","reservation":"no","shower":"no","tents":"yes","toilets":"no","tourism":"camp_site","website":"https://www.wildes-sh.de/index.php?id=13&tx_ekoneventmap_detail[event]=805"}},{"type":"node","id":6497065461,"lat":53.9671627,"lon":9.200013,"tags":{"backcountry":"yes","camp_site":"basic","capacity":"2","caravans":"no","description":"Zugang über Tor \"Am Wasserwerk\"","fee":"no","fixme":"genaue Lage?","maxstay":"1 day","motor_vehicle":"no","name":"Übernachtungsplatz Kuden","openfire":"no","reservation":"no","shower":"no","tents":"yes","toilets":"no","tourism":"camp_site","website":"https://www.wildes-sh.de/index.php?id=13&tx_ekoneventmap_detail[event]=1103"}},{"type":"node","id":6538020985,"lat":50.8152331,"lon":4.0711499,"tags":{"access":"private","backcountry":"yes","camp_site":"basic","capacity":"10","description:reservation":"you must announce your arrival one day in advance or same day before noon: contact the family Barbé by text message (no phone call)","drinking_water":"yes","maxstay":"48 hours","maxtents":"3","motor_vehicle":"no","name":"Bivakzone Nellekensbos","openfire":"yes","phone":"+32 478 25 72 39","reservation":"yes","toilets":"yes","tourism":"camp_site","website":"http://www.bivakzone.be/nellekensbos-meerbeke.html"}},{"type":"node","id":6566552345,"lat":49.589166,"lon":7.8868499,"tags":{"access":"customers","backcountry":"yes","camp_site":"basic","capacity":"6","caravans":"no","drinking_water":"no","fee":"yes","maxtents":"6","name":"Trekking Pfalz: Imsbach","openfire":"yes","opening_hours":"Apr 1-Oct 31: \"needs reservation by phone or web\"","ref":"10","reservation":"required","shower":"no","tents":"yes","toilets":"yes","tourism":"camp_site","website":"https://www.trekking-pfalz.de/de/trekking-plaetze/uebersicht-der-plaetze/platz-10/"}},{"type":"node","id":6569663046,"lat":50.4772296,"lon":11.3094638,"tags":{"backcountry":"yes","camp_site":"basic","capacity":"12","caravans":"no","drinking_water":"no","fee":"yes","group_only":"no","impromptu":"no","internet_access":"no","maxstay":"1 day","maxtents":"4","name":"Trekkingplatz FRANKENWALD Kobach","openfire":"yes","opening_hours":"Apr-Oct","operator":"Stadt Ludwigsstadt, Lauensteiner Straße 1, 96337 Ludwigsstadt","phone":"+49 175 5783187","reservation":"required","sanitary_dump_station":"no","scout":"no","shower":"no","tents":"yes","toilets":"yes","tourism":"camp_site","website":"https://www.trekking-bayern.de/region/spessart/zeltplaetze.html"}},{"type":"node","id":6590947599,"lat":50.2528264,"lon":6.3978509,"tags":{"access":"customers","backcountry":"yes","camp_site":"basic","caravans":"no","drinking_water":"no","fee":"yes","fireplace":"no","internet_access":"no","name":"Abgetaucht","openfire":"no","operator":"Naturpark Nordeifel e.V.","ref":"6","reservation":"required","shower":"no","tents":"yes","toilets":"yes","tourism":"camp_site","website":"http://www.trekking-eifel.de/de/die-trekkingplaetze/abgetaucht/","wheelchair":"no"}},{"type":"node","id":6611664996,"lat":50.0739105,"lon":9.3017364,"tags":{"access":"customers","backcountry":"yes","camp_site":"basic","capacity":"15","caravans":"no","drinking_water":"no","fee":"yes","group_only":"no","impromptu":"no","maxtents":"5","name":"Trekkingzeltplatz Lahnwiese","openfire":"yes","opening_hours":"Apr 1-Oct 31","operator":"Bayerische Staatsforsten;Spessartbund","reservation":"required","sanitary_dump_station":"no","shower":"no","tents":"yes","toilets":"yes","tourism":"camp_site","website":"https://www.trekking-bayern.de/region/spessart/zeltplaetze.html"}},{"type":"node","id":6699044445,"lat":49.1878867,"lon":7.82233,"tags":{"access":"customers","backcountry":"yes","camp_site":"basic","caravans":"no","drinking_water":"no","fee":"yes","name":"Trekking Pfalz: Hauenstein","openfire":"yes","opening_hours":"Apr 1-Oct 31: \"needs reservation by phone or web\"","ref":"15","reservation":"required","shower":"no","tents":"yes","tourism":"camp_site","website":"http://www.trekking-pfalz.de/de/trekking-plaetze/uebersicht-der-plaetze/platz-15"}},{"type":"node","id":6700055630,"lat":49.9541438,"lon":7.6215855,"tags":{"access":"customers","backcountry":"yes","camp_site":"basic","caravans":"no","drinking_water":"no","fee":"yes","fixme":"Details vor Ort erfassen (WC, ...)","name":"Trekkingcamp Ochsenbaumer Höhe","openfire":"yes","opening_hours":"Apr 1-Oct 31: \"needs reservation by phone or web\"","reservation":"required","short_name":"Ochsenbaumer Höhe","shower":"no","tents":"yes","tourism":"camp_site","website":"https://www.soonwaldsteig.de/trekkingcamps/die-camps/trekkingcamp-ochsenbaumer-hoehe"}},{"type":"node","id":6725949786,"lat":50.1009382,"lon":87.7980102,"tags":{"backcountry":"yes","camp_site":"basic","capacity:tents":"5","tourism":"camp_site"}},{"type":"node","id":6777954770,"lat":49.9332661,"lon":87.8415272,"tags":{"backcountry":"yes","camp_site":"basic","capacity:tents":"5","tourism":"camp_site"}},{"type":"node","id":6777955184,"lat":49.9543302,"lon":87.8785901,"tags":{"backcountry":"yes","camp_site":"basic","tourism":"camp_site"}},{"type":"node","id":6777955185,"lat":49.9532077,"lon":87.8796304,"tags":{"backcountry":"yes","camp_site":"basic","tourism":"camp_site"}},{"type":"node","id":6778000712,"lat":49.8732802,"lon":87.7627265,"tags":{"backcountry":"yes","camp_site":"basic","capacity:tents":"1","tourism":"camp_site"}},{"type":"node","id":6783229941,"lat":49.8354879,"lon":87.7029937,"tags":{"backcountry":"yes","camp_site":"basic","capacity:tents":"2","impromptu":"yes","source":"survey","tourism":"camp_site"}},{"type":"node","id":6783229942,"lat":49.8373078,"lon":87.7046245,"tags":{"backcountry":"yes","camp_site":"basic","capacity:tents":"2","impromptu":"yes","source":"survey","tourism":"camp_site"}},{"type":"node","id":6783294733,"lat":49.8553457,"lon":87.7273911,"tags":{"backcountry":"yes","camp_site":"basic","capacity:tents":"5","impromptu":"yes","source":"survey","tourism":"camp_site"}},{"type":"node","id":6783305423,"lat":49.8623142,"lon":87.7775002,"tags":{"backcountry":"yes","camp_site":"basic","capacity:tents":"5","impromptu":"yes","source":"survey","tourism":"camp_site"}},{"type":"node","id":6783369120,"lat":49.8420406,"lon":87.7994513,"tags":{"backcountry":"yes","camp_site":"basic","capacity:tents":"3","impromptu":"yes","source":"survey","tourism":"camp_site"}},{"type":"node","id":6786266581,"lat":49.9630098,"lon":87.7154285,"tags":{"backcountry":"yes","camp_site":"basic","capacity:tents":"2","impromptu":"yes","source":"survey","tourism":"camp_site"}},{"type":"node","id":6786276585,"lat":49.9614099,"lon":87.7125136,"tags":{"backcountry":"yes","camp_site":"basic","capacity:tents":"2","impromptu":"yes","source":"survey","tourism":"camp_site"}},{"type":"node","id":6786276611,"lat":49.957618,"lon":87.6985507,"tags":{"backcountry":"yes","camp_site":"basic","capacity:tents":"1","impromptu":"yes","source":"survey","tourism":"camp_site"}},{"type":"node","id":6786276613,"lat":49.956845,"lon":87.7030474,"tags":{"backcountry":"yes","camp_site":"basic","capacity:tents":"2","impromptu":"yes","source":"survey","tourism":"camp_site"}},{"type":"node","id":6786276751,"lat":49.9502017,"lon":87.5860441,"tags":{"backcountry":"yes","camp_site":"basic","capacity:tents":"1","impromptu":"yes","source":"survey","tourism":"camp_site"}},{"type":"node","id":6786276880,"lat":49.9447389,"lon":87.5323543,"tags":{"backcountry":"yes","camp_site":"basic","capacity:tents":"4","impromptu":"yes","source":"survey","tourism":"camp_site"}},{"type":"node","id":6786276953,"lat":49.9231764,"lon":87.4836896,"tags":{"backcountry":"yes","camp_site":"basic","capacity:tents":"2","impromptu":"yes","source":"survey","tourism":"camp_site"}},{"type":"node","id":6786277063,"lat":49.8520963,"lon":87.6097762,"tags":{"backcountry":"yes","camp_site":"basic","capacity:tents":"5","impromptu":"yes","source":"survey","tourism":"camp_site"}},{"type":"node","id":6786277178,"lat":49.8493767,"lon":87.5672944,"tags":{"backcountry":"yes","camp_site":"basic","capacity:tents":"3","impromptu":"yes","source":"survey","tourism":"camp_site"}},{"type":"node","id":6786277179,"lat":49.842337,"lon":87.5861716,"tags":{"backcountry":"yes","camp_site":"basic","capacity:tents":"5","impromptu":"yes","source":"survey","tourism":"camp_site"}},{"type":"node","id":6786277180,"lat":49.8507168,"lon":87.6044393,"tags":{"backcountry":"yes","camp_site":"basic","capacity:tents":"5","impromptu":"yes","source":"survey","tourism":"camp_site"}},{"type":"node","id":6786277181,"lat":49.8455854,"lon":87.6315236,"tags":{"backcountry":"yes","camp_site":"basic","capacity:tents":"3","impromptu":"yes","source":"survey","tourism":"camp_site"}},{"type":"node","id":6786277187,"lat":49.8244351,"lon":87.7076347,"tags":{"backcountry":"yes","camp_site":"basic","capacity:tents":"3","impromptu":"yes","source":"survey","tourism":"camp_site"}},{"type":"node","id":6786287757,"lat":50.0741185,"lon":87.7349617,"tags":{"backcountry":"yes","camp_site":"basic","capacity:tents":"3","tourism":"camp_site"}},{"type":"node","id":6786287758,"lat":50.0740391,"lon":87.7355953,"tags":{"backcountry":"yes","camp_site":"basic","capacity:tents":"2","tourism":"camp_site"}},{"type":"node","id":6786287759,"lat":50.0757978,"lon":87.7696654,"tags":{"backcountry":"yes","camp_site":"basic","capacity:tents":"1","tourism":"camp_site"}},{"type":"node","id":6786287783,"lat":50.0802981,"lon":87.7255753,"tags":{"backcountry":"yes","camp_site":"basic","capacity:tents":"3","tourism":"camp_site"}},{"type":"node","id":6786287784,"lat":50.079243,"lon":87.7252467,"tags":{"backcountry":"yes","camp_site":"basic","capacity:tents":"30","tourism":"camp_site"}},{"type":"node","id":6786315086,"lat":50.0857385,"lon":87.7823187,"tags":{"backcountry":"yes","camp_site":"basic","capacity:tents":"5","tourism":"camp_site"}},{"type":"node","id":6786315091,"lat":50.0872487,"lon":87.7821162,"tags":{"backcountry":"yes","camp_site":"basic","capacity:tents":"5","tourism":"camp_site"}},{"type":"node","id":6786339562,"lat":50.079539,"lon":87.7752525,"tags":{"backcountry":"yes","camp_site":"basic","capacity:tents":"10","tourism":"camp_site"}},{"type":"node","id":6786339563,"lat":50.0771576,"lon":87.7728492,"tags":{"backcountry":"yes","camp_site":"basic","capacity:tents":"1","tourism":"camp_site"}},{"type":"node","id":6821000037,"lat":50.7913451,"lon":5.3539318,"tags":{"alt_name":"Paalkampeerplaats Speelboomgaard Grootloon","backcountry":"yes","bicycle":"no","camp_site":"basic","description":"site voor paalkamperen","drinking_water":"no","fee":"no","maxstay":"48 hours","maxtents":"3","motor_vehicle":"no","name":"Bivakzone Grootloon","name:fr":"Zone bivouac Borgloon","openfire":"yes","operator":"the Flemish Agency for Nature and Forests","toilets":"yes","tourism":"camp_site"}},{"type":"node","id":6821054100,"lat":50.7699529,"lon":5.1857866,"tags":{"alt_name":"Paalkampeerplaats Eykenbos Sint-Truiden","backcountry":"yes","bicycle":"no","camp_site":"basic","description":"site voor paalkamperen","drinking_water":"no","maxtents":"3","motor_vehicle":"no","name":"Bivakzone Eyckenbos Kerkom","name:fr":"Point de bivouac Eykenbos","openfire":"no","toilets":"yes","tourism":"camp_site"}},{"type":"node","id":6988267600,"lat":58.8468923,"lon":24.3812254,"tags":{"backcountry":"yes","camp_site":"basic","fee":"no","name":"Susla Lõkkekoht RMK","operator":"RMK","toilets":"yes","tourism":"camp_site"}},{"type":"node","id":7093111580,"lat":51.0036932,"lon":4.5423328,"tags":{"backcountry":"yes","bicycle":"yes","camp_site":"basic","capacity":"10","caravans":"no","description":"minimalistic bivouac site","description:nl":"site voor paalkamperen","description:reservation":"Send a text message one day in advance","dog":"no","drinking_water":"no","fee":"no","image":"http://bivakzone.be/images/arcadia/arcadia2.jpg","maxstay":"1 night","maxtents":"3","motor_vehicle":"no","name":"Bivakzone Arcadia","operator":"Heer Karsten Van Lil","phone":"+32 497 82 66 43","reservation":"required","source:nl":"http://www.bivakzone.be/arcadia-muizen.html","tents":"yes","tourism":"camp_site","url":"http://bivakzone.be/arcadia-muizen.html","website":"https://arcadiamuizen.com/"}},{"type":"node","id":7150914929,"lat":62.2077337,"lon":28.9183736,"tags":{"access":"yes","backcountry":"yes","camp_site":"basic","drinking_water":"no","fee":"no","name":"Lohilahti länsi telttailualue","openfire":"yes","operator":"Metsähallitus","tents":"yes","toilets":"yes","tourism":"camp_site"}},{"type":"node","id":7151125315,"lat":62.3085325,"lon":28.7456013,"tags":{"access":"yes","backcountry":"yes","camp_site":"basic","capacity":"5","drinking_water":"no","fee":"no","name":"Pitkäsaari pohjoinen telttailualue","openfire":"yes","operator":"Metsähallitus","tents":"yes","toilets":"no","tourism":"camp_site"}},{"type":"node","id":7172765446,"lat":39.4817679,"lon":46.3541474,"tags":{"backcountry":"yes","camp_site":"basic","tourism":"camp_site"}}]